NORAD_CAT_ID,OBJECT_NAME,OBJECT_TYPE,EPOCH,MEAN_MOTION,ECCENTRICITY,INCLINATION,RA_OF_ASC_NODE,ARG_OF_PERICENTER,MEAN_ANOMALY,BSTAR,MEAN_MOTION_DOT,MEAN_MOTION_DDOT,TLE_LINE0,TLE_LINE1,TLE_LINE2,SEMIMAJOR_AXIS,PERIOD,APOGEE,PERIGEE,DECAYED
53426.0,STARLINK-4558,PAYLOAD,2022-12-03 22:00:00,15.08824302,0.0001158,53.2174,54.3458,81.0954,305.3895,-0.001019,-0.00016461,0.0,0 STARLINK-4558,1 53426U 22097AQ  22337.91667824 -.00016461  00000-0 -10190-2 0  9993,2 53426  53.2174  54.3458 0001158  81.0954 305.3895 15.08824302  1305,6917.928000000001,95.439,540.594,538.992,0.0
53426.0,STARLINK-4558,PAYLOAD,2022-12-04 00:00:00,15.0880549,0.0001115,53.2175,53.9714,84.8289,34.554,0.0016312999999999,0.00025745,0.0,0 STARLINK-4558,1 53426U 22097AQ  22338.00001157  .00025745  00000-0  16313-2 0  9991,2 53426  53.2175  53.9714 0001115  84.8289  34.5540 15.08805490 18393,6917.986,95.44,540.622,539.08,0.0
53426.0,STARLINK-4558,PAYLOAD,2022-12-04 14:00:01,15.08817439,0.0001193,53.2174,51.3548,75.9045,333.73,0.0018652,0.00029503,0.0,0 STARLINK-4558,1 53426U 22097AQ  22338.58334491  .00029503  00000-0  18652-2 0  9998,2 53426  53.2174  51.3548 0001193  75.9045 333.7300 15.08817439  1303,6917.949000000001,95.439,540.64,538.989,0.0
53426.0,STARLINK-4558,PAYLOAD,2022-12-04 22:00:00,15.08852511,0.0001124,53.2172,49.8571,81.6861,339.534,-0.00040745,-6.769e-05,0.0,0 STARLINK-4558,1 53426U 22097AQ  22338.91667824 -.00006769  00000-0 -40745-3 0  9994,2 53426  53.2172  49.8571 0001124  81.6861 339.5340 15.08852511  1301,6917.842,95.437,540.485,538.93,0.0
53426.0,STARLINK-4558,PAYLOAD,2022-12-05 06:00:00,15.08880032,0.000118,53.2172,48.3607,87.2322,345.5907,-0.0016076,-0.00025809,0.0,0 STARLINK-4558,1 53426U 22097AQ  22339.25001157 -.00025809  00000-0 -16076-2 0  9998,2 53426  53.2172  48.3607 0001180  87.2322 345.5907 15.08880032 18584,6917.7580000000025,95.435,540.439,538.807,0.0
53426.0,STARLINK-4558,PAYLOAD,2022-12-05 14:00:01,15.08826685,0.0001289,53.2171,46.86600000000001,76.4043,8.1195,0.0026845,0.00042679,0.0,0 STARLINK-4558,1 53426U 22097AQ  22339.58335648  .00042679  00000-0  26845-2 0  9996,2 53426  53.2171  46.8660 0001289  76.4043   8.1195 15.08826685  1302,6917.920999999999,95.438,540.678,538.894,0.0
53426.0,STARLINK-4558,PAYLOAD,2022-12-05 16:00:00,15.08825813,0.0001291,53.2168,46.4919,74.3128,103.0474,0.0035491,0.00056628,0.0,0 STARLINK-4558,1 53426U 22097AQ  22339.66667824  .00056628  00000-0  35491-2 0  9995,2 53426  53.2168  46.4919 0001291  74.3128 103.0474 15.08825813  1302,6917.924,95.438,540.682,538.896,0.0
53426.0,STARLINK-4558,PAYLOAD,2022-12-06 08:42:17,15.08834404,9.23e-05,53.2164,43.365,69.2953,290.8138,0.00016081,2.272e-05,0.0,0 STARLINK-4558,1 53426U 22097AQ  22340.36270396  .00002272  00000-0  16081-3 0  9999,2 53426  53.2164  43.3650 0000923  69.2953 290.8138 15.08834404 19235,6917.897,95.438,540.401,539.124,0.0
53426.0,STARLINK-4558,PAYLOAD,2022-12-06 10:17:41,15.08833186,0.0001445,53.218,43.0683,96.1659,263.9498,5.741800000000001e-05,6.26e-06,0.0,0 STARLINK-4558,1 53426U 22097AQ  22340.42894834  .00000626  00000-0  57418-4 0  9996,2 53426  53.2180  43.0683 0001445  96.1659 263.9498 15.08833186 18761,6917.901,95.438,540.766,538.7669999999998,0.0
53426.0,STARLINK-4558,PAYLOAD,2022-12-06 11:53:04,15.08829689,0.0001116,53.2174,42.771,103.9171,256.1945,2.1322e-05,5.1e-07,0.0,0 STARLINK-4558,1 53426U 22097AQ  22340.49519153  .00000051  00000-0  21322-4 0  9998,2 53426  53.2174  42.7710 0001116 103.9171 256.1945 15.08829689 19251,6917.9119999999975,95.438,540.549,539.005,0.0
53426.0,STARLINK-4558,PAYLOAD,2022-12-07 13:19:14,15.08840188,0.0001061,53.2178,38.0132,68.9251,291.1854,-0.00011481,-2.115e-05,0.0,0 STARLINK-4558,1 53426U 22097AQ  22341.55503234 -.00002115  00000-0 -11481-3 0  9998,2 53426  53.2178  38.0132 0001061  68.9251 291.1854 15.08840188 18938,6917.88,95.438,540.479,539.011,0.0
53426.0,STARLINK-4558,PAYLOAD,2022-12-08 14:45:22,15.08856799,0.0001276,53.218,33.2542,93.2995,266.8143,9.9091e-05,1.29e-05,0.0,0 STARLINK-4558,1 53426U 22097AQ  22342.61484713  .00001290  00000-0  99091-4 0  9991,2 53426  53.2180  33.2542 0001276  93.2995 266.8143 15.08856799 19090,6917.829000000002,95.436,540.577,538.811,0.0
53426.0,STARLINK-4558,PAYLOAD,2022-12-08 21:06:55,15.0884945,0.0001141,53.2196,32.0655,90.0669,270.0454,0.0001341,1.848e-05,0.0,0 STARLINK-4558,1 53426U 22097AQ  22342.87980827  .00001848  00000-0  13410-3 0  9995,2 53426  53.2196  32.0655 0001141  90.0669 270.0454 15.08849450 19136,6917.852,95.437,540.506,538.927,0.0
53426.0,STARLINK-4558,PAYLOAD,2022-12-09 13:00:48,15.08832568,7.92e-05,53.2181,29.0915,86.5952,273.513,-2.4381e-06,-3.26e-06,0.0,0 STARLINK-4558,1 53426U 22097AQ  22343.54222292 -.00000326  00000-0 -24381-5 0  9998,2 53426  53.2181  29.0915 0000792  86.5952 273.5130 15.08832568 19233,6917.903,95.438,540.316,539.22,0.0
53426.0,STARLINK-4558,PAYLOAD,2022-12-09 14:36:12,15.08815717,0.0001701,53.2179,28.794,78.2339,281.8844,-0.00014065,-2.524e-05,0.0,0 STARLINK-4558,1 53426U 22097AQ  22343.60848068 -.00002524  00000-0 -14065-3 0  9998,2 53426  53.2179  28.7940 0001701  78.2339 281.8844 15.08815717 19244,6917.955,95.439,540.996,538.643,0.0
53426.0,STARLINK-4558,PAYLOAD,2022-12-10 06:30:03,15.088296599999998,0.0001662,53.2188,25.8221,81.9017,278.2164,-0.00012895,-2.339e-05,0.0,0 STARLINK-4558,1 53426U 22097AQ  22344.27087603 -.00002339  00000-0 -12895-3 0  9995,2 53426  53.2188  25.8221 0001662  81.9017 278.2164 15.08829660 19342,6917.9119999999975,95.438,540.927,538.627,0.0
53426.0,STARLINK-4558,PAYLOAD,2022-12-10 09:40:49,15.08832652,0.0001406,53.2172,25.2262,90.9798,269.1355,-0.0001659,-2.927e-05,0.0,0 STARLINK-4558,1 53426U 22097AQ  22344.40335411 -.00002927  00000-0 -16590-3 0  9992,2 53426  53.2172  25.2262 0001406  90.9798 269.1355 15.08832652 19847,6917.903,95.438,540.741,538.795,0.0
53426.0,STARLINK-4558,PAYLOAD,2022-12-11 03:10:03,15.08849511,0.000125,53.2176,21.9543,93.795,266.3185,-0.00015341,-2.729e-05,0.0,0 STARLINK-4558,1 53426U 22097AQ  22345.13198374 -.00002729  00000-0 -15341-3 0  9991,2 53426  53.2176  21.9543 0001250  93.7950 266.3185 15.08849511 19475,6917.851,95.437,540.581,538.852,0.0
53426.0,STARLINK-4558,PAYLOAD,2022-12-11 12:42:23,15.08821786,0.0001575999999999,53.2179,20.1695,90.5207,269.5965,0.00015748,2.218e-05,0.0,0 STARLINK-4558,1 53426U 22097AQ  22345.52943397  .00002218  00000-0  15748-3 0  9999,2 53426  53.2179  20.1695 0001576  90.5207 269.5965 15.08821786 19530,6917.936,95.439,540.891,538.711,0.0
53426.0,STARLINK-4558,PAYLOAD,2022-12-12 03:00:51,15.08829854,0.0001546,53.2179,17.4944,85.4981,274.6188,0.00018348,2.633e-05,0.0,0 STARLINK-4558,1 53426U 22097AQ  22346.12559320  .00002633  00000-0  18348-3 0  9995,2 53426  53.2179  17.4944 0001546  85.4981 274.6188 15.08829854 19623,6917.911,95.438,540.846,538.707,0.0
53426.0,STARLINK-4558,PAYLOAD,2022-12-12 10:57:47,15.08828019,0.0001517,53.2179,16.0076,75.4371,284.6789,4.2286e-05,3.85e-06,0.0,0 STARLINK-4558,1 53426U 22097AQ  22346.45680135  .00000385  00000-0  42286-4 0  9991,2 53426  53.2179  16.0076 0001517  75.4371 284.6789 15.08828019 19679,6917.917,95.438,540.831,538.7330000000002,0.0
53426.0,STARLINK-4558,PAYLOAD,2022-12-13 02:51:38,15.08836552,0.0001477,53.2173,13.0336,80.9595,279.1564,1.7409000000000002e-05,-1.1e-07,0.0,0 STARLINK-4558,1 53426U 22097AQ  22347.11919848 -.00000011  00000-0  17409-4 0  9997,2 53426  53.2173  13.0336 0001477  80.9595 279.1564 15.08836552 19775,6917.891,95.438,540.778,538.734,0.0
53426.0,STARLINK-4558,PAYLOAD,2022-12-13 09:13:11,15.08835894,0.0001476,53.2176,11.8442,78.2845,281.8312,1.4135e-05,-6.3e-07,0.0,0 STARLINK-4558,1 53426U 22097AQ  22347.38415984 -.00000063  00000-0  14135-4 0  9998,2 53426  53.2176  11.8442 0001476  78.2845 281.8312 15.08835894 20297,6917.893,95.438,540.779,538.737,0.0
53426.0,STARLINK-4558,PAYLOAD,2022-12-13 18:45:29,15.08845153,0.0001435,53.2175,10.06,80.2728,279.8426,6.066e-05,6.78e-06,0.0,0 STARLINK-4558,1 53426U 22097AQ  22347.78159181  .00000678  00000-0  60660-4 0  9991,2 53426  53.2175  10.0600 0001435  80.2728 279.8426 15.08845153 19875,6917.865,95.437,540.722,538.737,0.0
53426.0,STARLINK-4558,PAYLOAD,2022-12-14 10:39:21,15.08842059,0.0001346,53.217,7.0864,68.7098,291.4038,-2.7693e-05,-7.29e-06,0.0,0 STARLINK-4558,1 53426U 22097AQ  22348.44399568 -.00000729  00000-0 -27693-4 0  9998,2 53426  53.2170   7.0864 0001346  68.7098 291.4038 15.08842059 19972,6917.874,95.437,540.67,538.808,0.0
53426.0,STARLINK-4558,PAYLOAD,2022-12-14 18:36:17,15.08831393,0.0001396999999999,53.2168,5.5998,75.3493,284.7654,-7.6382e-06,-4.09e-06,0.0,0 STARLINK-4558,1 53426U 22097AQ  22348.77520235 -.00000409  00000-0 -76382-5 0  9996,2 53426  53.2168   5.5998 0001397  75.3493 284.7654 15.08831393 20508,6917.906999999997,95.438,540.738,538.805,0.0
53426.0,STARLINK-4558,PAYLOAD,2022-12-15 07:19:21,15.08846591,0.0001332,53.2171,3.2209,74.3831,285.7308,0.00010543,1.391e-05,0.0,0 STARLINK-4558,1 53426U 22097AQ  22349.30510887  .00001391  00000-0  10543-3 0  9992,2 53426  53.2171   3.2209 0001332  74.3831 285.7308 15.08846591 20105,6917.86,95.437,540.6469999999998,538.804,0.0
53426.0,STARLINK-4558,PAYLOAD,2022-12-15 12:05:31,15.088406,0.0001338,53.2172,2.3306,77.0534,283.0607,4.0638e-05,3.59e-06,0.0,0 STARLINK-4558,1 53426U 22097AQ  22349.50383463  .00000359  00000-0  40638-4 0  9994,2 53426  53.2172   2.3306 0001338  77.0534 283.0607 15.08840600 20614,6917.879,95.438,540.669,538.818,0.0
53426.0,STARLINK-4558,PAYLOAD,2022-12-15 13:40:54,15.08841074,0.0001327,53.2171,2.0333,76.4699,283.6441,4.3621e-05,4.06e-06,0.0,0 STARLINK-4558,1 53426U 22097AQ  22349.57007404  .00000406  00000-0  43621-4 0  9997,2 53426  53.2171   2.0333 0001327  76.4699 283.6441 15.08841074 20149,6917.877,95.437,540.66,538.8240000000002,0.0
